[{"OBJECT_NAME":"STARLINK-2642","OBJECT_ID":"2021-040K","EPOCH":"2026-03-10T00:00:02.999808","MEAN_MOTION":15.26483116,"ECCENTRICITY":0.00011873,"INCLINATION":53.1432,"RA_OF_ASC_NODE":189.485,"ARG_OF_PERICENTER":75.2668,"MEAN_ANOMALY":286.1269,"EPHEMERIS_TYPE":0,"CLASSIFICATION_TYPE":"U","NORAD_CAT_ID":48437,"ELEMENT_SET_NO":999,"REV_AT_EPOCH":574,"BSTAR":0.059854525,"MEAN_MOTION_DOT":0.01729147,"MEAN_MOTION_DDOT":0},{"OBJECT_NAME":"NOAA 16 DEB","OBJECT_ID":"2000-055BK","EPOCH":"2026-03-09T02:17:10.174560","MEAN_MOTION":15.30191008,"ECCENTRICITY":0.00052528,"INCLINATION":98.9831,"RA_OF_ASC_NODE":305.6383,"ARG_OF_PERICENTER":26.64,"MEAN_ANOMALY":333.5104,"EPHEMERIS_TYPE":0,"CLASSIFICATION_TYPE":"U","NORAD_CAT_ID":41128,"ELEMENT_SET_NO":999,"REV_AT_EPOCH":53406,"BSTAR":0.017668961,"MEAN_MOTION_DOT":0.00549039,"MEAN_MOTION_DDOT":0}]
